[{"OBJECT_NAME":"STARLINK-3900","OBJECT_ID":"2022-049L","EPOCH":"2026-03-09T22:31:04.534752","MEAN_MOTION":15.08835619,"ECCENTRICITY":0.00016983,"INCLINATION":53.2182,"RA_OF_ASC_NODE":48.005,"ARG_OF_PERICENTER":80.2222,"MEAN_ANOMALY":279.8962,"EPHEMERIS_TYPE":0,"CLASSIFICATION_TYPE":"U","NORAD_CAT_ID":52461,"ELEMENT_SET_NO":999,"REV_AT_EPOCH":21242,"BSTAR":8.4100662e-5,"MEAN_MOTION_DOT":1.051e-5,"MEAN_MOTION_DDOT":0},{"OBJECT_NAME":"SL-6 R\/B(2)","OBJECT_ID":"1990-055D","EPOCH":"2026-03-09T21:41:59.551872","MEAN_MOTION":15.03595553,"ECCENTRICITY":0.00247741,"INCLINATION":62.7825,"RA_OF_ASC_NODE":253.121,"ARG_OF_PERICENTER":347.1508,"MEAN_ANOMALY":12.8957,"EPHEMERIS_TYPE":0,"CLASSIFICATION_TYPE":"U","NORAD_CAT_ID":20666,"ELEMENT_SET_NO":999,"REV_AT_EPOCH":93822,"BSTAR":0.00020900577,"MEAN_MOTION_DOT":2.688e-5,"MEAN_MOTION_DDOT":0}]
